TEVEL2-1                
1 63217U 25052H   26068.64782323  .00020683  00000+0  70600-3 0  9994
2 63217  97.3991 324.7682 0004767 104.8919 255.2849 15.30341923 54855
STARLINK-33786          
1 63514U 25071X   26068.47972777  .00008500  00000+0  29896-3 0  9995
2 63514  53.1571 141.1484 0001649  29.4064 330.7029 15.30179796 52358
